METEOSAT-10 (MSG-3)     
1 38552U 12035B   25126.16907461 -.00000010  00000+0  00000+0 0  9994
2 38552   3.7119  62.0634 0000627 337.6356 245.6090  1.00268156 47135
METOP-B                 
1 38771U 12049A   25126.18850957  .00000190  00000+0  10651-3 0  9996
2 38771  98.5796 181.3679 0002054  98.3440 261.7971 14.21490645655438
INSAT-3D                
1 39216U 13038B   25125.83768249 -.00000346  00000+0  00000+0 0  9990
2 39216   0.8737  88.0017 0001460 243.5622 323.4535  1.00268133 42990
FENGYUN 3C              
1 39260U 13052A   25126.15611889  .00000191  00000+0  11810-3 0  9990
2 39260  98.4534 114.9015 0015821 113.5701 246.7137 14.15616607601049
METEOR-M 2              
1 40069U 14037A   25126.19554618  .00000227  00000+0  12333-3 0  9994
2 40069  98.4666 112.5440 0006615 131.1662 229.0088 14.21285278561501
HIMAWARI-8              
1 40267U 14060A   25125.91135699 -.00000282  00000+0  00000+0 0  9999
2 40267   0.0486  82.8339 0000792 313.0328 296.9162  1.00273265 38664
FENGYUN 2G              
1 40367U 14090A   25125.90310336 -.00000305  00000+0  00000+0 0  9991
2 40367   4.6089  77.7486 0002945 132.5033  78.2041  1.00273859 37912
METEOSAT-11 (MSG-4)     
1 40732U 15034A   25125.88529289  .00000056  00000+0  00000+0 0  9994
2 40732   2.1839  72.2923 0001417 287.3414 192.4001  1.00267166  3131
ELEKTRO-L 2             
1 41105U 15074A   25126.18517038 -.00000119  00000+0  00000+0 0  9997
2 41105   5.6683  75.5268 0001911 236.1064 324.8447  1.00271975 34436
INSAT-3DR               
1 41752U 16054A   25125.68794670 -.00000085  00000+0  00000+0 0  9999
2 41752   0.0878  90.9143 0010759 183.5617 270.9710  1.00271619 31730
HIMAWARI-9              
1 41836U 16064A   25126.17892212 -.00000281  00000+0  00000+0 0  9997
2 41836   0.0351  95.0537 0001120 323.5678  10.8398  1.00271048 31220
GOES 16                 
1 41866U 16071A   25125.86591859 -.00000178  00000+0  00000+0 0  9991
2 41866   0.0472 272.5682 0000914 198.1189 336.8734  1.00128026 31012
FENGYUN 4A              
1 41882U 16077A   25125.90796866 -.00000363  00000+0  00000+0 0  9991
2 41882   1.2850  84.5727 0007819 165.8243  64.1625  1.00272579 30840
CYGFM05                 
1 41884U 16078A   25125.84573431  .00016344  00000+0  40091-3 0  9991
2 41884  34.9622  39.8807 0011418 284.0010  75.9439 15.39747959465627
