[
  {
    "OBJECT_NAME": "METEOSAT-10 (MSG-3)",
    "OBJECT_ID": "2012-035B",
    "EPOCH": "2025-05-06T04:03:28.046304",
    "MEAN_MOTION": 1.00268156,
    "ECCENTRICITY": 6.27e-05,
    "INCLINATION": 3.7119,
    "RA_OF_ASC_NODE": 62.0634,
    "ARG_OF_PERICENTER": 337.6356,
    "MEAN_ANOMALY": 245.609,
    "EPHEMERIS_TYPE": 0,
    "CLASSIFICATION_TYPE": "U",
    "NORAD_CAT_ID": 38552,
    "ELEMENT_SET_NO": 999,
    "REV_AT_EPOCH": 4713,
    "BSTAR": 0,
    "MEAN_MOTION_DOT": -1e-07,
    "MEAN_MOTION_DDOT": 0
  },
  {
    "OBJECT_NAME": "METOP-B",
    "OBJECT_ID": "2012-049A",
    "EPOCH": "2025-05-06T04:31:27.226848",
    "MEAN_MOTION": 14.21490645,
    "ECCENTRICITY": 0.0002054,
    "INCLINATION": 98.5796,
    "RA_OF_ASC_NODE": 181.3679,
    "ARG_OF_PERICENTER": 98.344,
    "MEAN_ANOMALY": 261.7971,
    "EPHEMERIS_TYPE": 0,
    "CLASSIFICATION_TYPE": "U",
    "NORAD_CAT_ID": 38771,
    "ELEMENT_SET_NO": 999,
    "REV_AT_EPOCH": 65543,
    "BSTAR": 0.00010651,
    "MEAN_MOTION_DOT": 1.9e-06,
    "MEAN_MOTION_DDOT": 0
  },
  {
    "OBJECT_NAME": "INSAT-3D",
    "OBJECT_ID": "2013-038B",
    "EPOCH": "2025-05-05T20:06:15.767136",
    "MEAN_MOTION": 1.00268133,
    "ECCENTRICITY": 0.000146,
    "INCLINATION": 0.8737,
    "RA_OF_ASC_NODE": 88.0017,
    "ARG_OF_PERICENTER": 243.5622,
    "MEAN_ANOMALY": 323.4535,
    "EPHEMERIS_TYPE": 0,
    "CLASSIFICATION_TYPE": "U",
    "NORAD_CAT_ID": 39216,
    "ELEMENT_SET_NO": 999,
    "REV_AT_EPOCH": 4299,
    "BSTAR": 0,
    "MEAN_MOTION_DOT": -3.46e-06,
    "MEAN_MOTION_DDOT": 0
  },
  {
    "OBJECT_NAME": "FENGYUN 3C",
    "OBJECT_ID": "2013-052A",
    "EPOCH": "2025-05-06T03:44:48.672096",
    "MEAN_MOTION": 14.15616607,
    "ECCENTRICITY": 0.0015821,
    "INCLINATION": 98.4534,
    "RA_OF_ASC_NODE": 114.9015,
    "ARG_OF_PERICENTER": 113.5701,
    "MEAN_ANOMALY": 246.7137,
    "EPHEMERIS_TYPE": 0,
    "CLASSIFICATION_TYPE": "U",
    "NORAD_CAT_ID": 39260,
    "ELEMENT_SET_NO": 999,
    "REV_AT_EPOCH": 60104,
    "BSTAR": 0.0001181,
    "MEAN_MOTION_DOT": 1.91e-06,
    "MEAN_MOTION_DDOT": 0
  },
  {
    "OBJECT_NAME": "METEOR-M 2",
    "OBJECT_ID": "2014-037A",
    "EPOCH": "2025-05-06T04:41:35.189952",
    "MEAN_MOTION": 14.21285278,
    "ECCENTRICITY": 0.0006615,
    "INCLINATION": 98.4666,
    "RA_OF_ASC_NODE": 112.544,
    "ARG_OF_PERICENTER": 131.1662,
    "MEAN_ANOMALY": 229.0088,
    "EPHEMERIS_TYPE": 0,
    "CLASSIFICATION_TYPE": "U",
    "NORAD_CAT_ID": 40069,
    "ELEMENT_SET_NO": 999,
    "REV_AT_EPOCH": 56150,
    "BSTAR": 0.00012333,
    "MEAN_MOTION_DOT": 2.27e-06,
    "MEAN_MOTION_DDOT": 0
  },
  {
    "OBJECT_NAME": "HIMAWARI-8",
    "OBJECT_ID": "2014-060A",
    "EPOCH": "2025-05-05T21:52:21.243936",
    "MEAN_MOTION": 1.00273265,
    "ECCENTRICITY": 7.92e-05,
    "INCLINATION": 0.0486,
    "RA_OF_ASC_NODE": 82.8339,
    "ARG_OF_PERICENTER": 313.0328,
    "MEAN_ANOMALY": 296.9162,
    "EPHEMERIS_TYPE": 0,
    "CLASSIFICATION_TYPE": "U",
    "NORAD_CAT_ID": 40267,
    "ELEMENT_SET_NO": 999,
    "REV_AT_EPOCH": 3866,
    "BSTAR": 0,
    "MEAN_MOTION_DOT": -2.82e-06,
    "MEAN_MOTION_DDOT": 0
  },
  {
    "OBJECT_NAME": "FENGYUN 2G",
    "OBJECT_ID": "2014-090A",
    "EPOCH": "2025-05-05T21:40:28.130304",
    "MEAN_MOTION": 1.00273859,
    "ECCENTRICITY": 0.0002945,
    "INCLINATION": 4.6089,
    "RA_OF_ASC_NODE": 77.7486,
    "ARG_OF_PERICENTER": 132.5033,
    "MEAN_ANOMALY": 78.2041,
    "EPHEMERIS_TYPE": 0,
    "CLASSIFICATION_TYPE": "U",
    "NORAD_CAT_ID": 40367,
    "ELEMENT_SET_NO": 999,
    "REV_AT_EPOCH": 3791,
    "BSTAR": 0,
    "MEAN_MOTION_DOT": -3.05e-06,
    "MEAN_MOTION_DDOT": 0
  },
  {
    "OBJECT_NAME": "METEOSAT-11 (MSG-4)",
    "OBJECT_ID": "2015-034A",
    "EPOCH": "2025-05-05T21:14:49.305696",
    "MEAN_MOTION": 1.00267166,
    "ECCENTRICITY": 0.0001417,
    "INCLINATION": 2.1839,
    "RA_OF_ASC_NODE": 72.2923,
    "ARG_OF_PERICENTER": 287.3414,
    "MEAN_ANOMALY": 192.4001,
    "EPHEMERIS_TYPE": 0,
    "CLASSIFICATION_TYPE": "U",
    "NORAD_CAT_ID": 40732,
    "ELEMENT_SET_NO": 999,
    "REV_AT_EPOCH": 313,
    "BSTAR": 0,
    "MEAN_MOTION_DOT": 5.6e-07,
    "MEAN_MOTION_DDOT": 0
  },
  {
    "OBJECT_NAME": "ELEKTRO-L 2",
    "OBJECT_ID": "2015-074A",
    "EPOCH": "2025-05-06T04:26:38.720832",
    "MEAN_MOTION": 1.00271975,
    "ECCENTRICITY": 0.0001911,
    "INCLINATION": 5.6683,
    "RA_OF_ASC_NODE": 75.5268,
    "ARG_OF_PERICENTER": 236.1064,
    "MEAN_ANOMALY": 324.8447,
    "EPHEMERIS_TYPE": 0,
    "CLASSIFICATION_TYPE": "U",
    "NORAD_CAT_ID": 41105,
    "ELEMENT_SET_NO": 999,
    "REV_AT_EPOCH": 3443,
    "BSTAR": 0,
    "MEAN_MOTION_DOT": -1.19e-06,
    "MEAN_MOTION_DDOT": 0
  },
  {
    "OBJECT_NAME": "INSAT-3DR",
    "OBJECT_ID": "2016-054A",
    "EPOCH": "2025-05-05T16:30:38.594880",
    "MEAN_MOTION": 1.00271619,
    "ECCENTRICITY": 0.0010759,
    "INCLINATION": 0.0878,
    "RA_OF_ASC_NODE": 90.9143,
    "ARG_OF_PERICENTER": 183.5617,
    "MEAN_ANOMALY": 270.971,
    "EPHEMERIS_TYPE": 0,
    "CLASSIFICATION_TYPE": "U",
    "NORAD_CAT_ID": 41752,
    "ELEMENT_SET_NO": 999,
    "REV_AT_EPOCH": 3173,
    "BSTAR": 0,
    "MEAN_MOTION_DOT": -8.5e-07,
    "MEAN_MOTION_DDOT": 0
  },
  {
    "OBJECT_NAME": "HIMAWARI-9",
    "OBJECT_ID": "2016-064A",
    "EPOCH": "2025-05-06T04:17:38.871168",
    "MEAN_MOTION": 1.00271048,
    "ECCENTRICITY": 0.000112,
    "INCLINATION": 0.0351,
    "RA_OF_ASC_NODE": 95.0537,
    "ARG_OF_PERICENTER": 323.5678,
    "MEAN_ANOMALY": 10.8398,
    "EPHEMERIS_TYPE": 0,
    "CLASSIFICATION_TYPE": "U",
    "NORAD_CAT_ID": 41836,
    "ELEMENT_SET_NO": 999,
    "REV_AT_EPOCH": 3122,
    "BSTAR": 0,
    "MEAN_MOTION_DOT": -2.81e-06,
    "MEAN_MOTION_DDOT": 0
  },
  {
    "OBJECT_NAME": "GOES 16",
    "OBJECT_ID": "2016-071A",
    "EPOCH": "2025-05-05T20:46:55.366176",
    "MEAN_MOTION": 1.00128026,
    "ECCENTRICITY": 9.14e-05,
    "INCLINATION": 0.0472,
    "RA_OF_ASC_NODE": 272.5682,
    "ARG_OF_PERICENTER": 198.1189,
    "MEAN_ANOMALY": 336.8734,
    "EPHEMERIS_TYPE": 0,
    "CLASSIFICATION_TYPE": "U",
    "NORAD_CAT_ID": 41866,
    "ELEMENT_SET_NO": 999,
    "REV_AT_EPOCH": 3101,
    "BSTAR": 0,
    "MEAN_MOTION_DOT": -1.78e-06,
    "MEAN_MOTION_DDOT": 0
  },
  {
    "OBJECT_NAME": "FENGYUN 4A",
    "OBJECT_ID": "2016-077A",
    "EPOCH": "2025-05-05T21:47:28.492224",
    "MEAN_MOTION": 1.00272579,
    "ECCENTRICITY": 0.0007819,
    "INCLINATION": 1.285,
    "RA_OF_ASC_NODE": 84.5727,
    "ARG_OF_PERICENTER": 165.8243,
    "MEAN_ANOMALY": 64.1625,
    "EPHEMERIS_TYPE": 0,
    "CLASSIFICATION_TYPE": "U",
    "NORAD_CAT_ID": 41882,
    "ELEMENT_SET_NO": 999,
    "REV_AT_EPOCH": 3084,
    "BSTAR": 0,
    "MEAN_MOTION_DOT": -3.63e-06,
    "MEAN_MOTION_DDOT": 0
  },
  {
    "OBJECT_NAME": "CYGFM05",
    "OBJECT_ID": "2016-078A",
    "EPOCH": "2025-05-05T20:17:51.444384",
    "MEAN_MOTION": 15.39747959,
    "ECCENTRICITY": 0.0011418,
    "INCLINATION": 34.9622,
    "RA_OF_ASC_NODE": 39.8807,
    "ARG_OF_PERICENTER": 284.001,
    "MEAN_ANOMALY": 75.9439,
    "EPHEMERIS_TYPE": 0,
    "CLASSIFICATION_TYPE": "U",
    "NORAD_CAT_ID": 41884,
    "ELEMENT_SET_NO": 999,
    "REV_AT_EPOCH": 46562,
    "BSTAR": 0.00040091,
    "MEAN_MOTION_DOT": 0.00016344,
    "MEAN_MOTION_DDOT": 0
  }
]